DELTA 2 R/B(1)          
1 20453U 90008B   26022.27312310  .00063184  00000+0  89449-3 0  9990
2 20453  35.6056 117.9932 0100704 189.0953 170.7956 15.49536406918916
COSMOS 2058             
1 20465U 90010A   26022.22884133  .00005440  00000+0  32475-3 0  9996
2 20465  82.4660  93.1968 0011181 128.3358 231.8878 15.10885520935226
SL-14 R/B               
1 20466U 90010B   26022.21555153  .00000907  00000+0  10694-3 0  9995
2 20466  82.5046 311.0372 0021412  92.6865 267.6802 14.83519234921595
SL-14 R/B               
1 20511U 90018B   26022.05348776  .00000839  00000+0  10255-3 0  9994
2 20511  82.5205 266.6887 0015009 243.5907 116.3767 14.82094909915676
HST                     
1 20580U 90037B   26022.21199642  .00010127  00000+0  34472-3 0  9993
2 20580  28.4682 356.8795 0001647 319.5889  40.4584 15.28679599766196
SL-16 R/B               
1 20625U 90046B   26022.32329814 -.00000136  00000+0 -45367-4 0  9998
2 20625  70.9995  35.2899 0013884   4.3504 355.7737 14.15007927841839
COSMOS 2084             
1 20663U 90055A   26021.69555657  .00006757  00000+0  48031-3 0  9998
2 20663  62.7909 135.8210 0024842 180.8535 179.2527 15.05316303929248
SL-6 R/B(2)             
1 20666U 90055D   26022.21346396  .00004158  00000+0  31835-3 0  9995
2 20666  62.7835  51.8680 0018024 332.0572  27.9558 15.03310843931207
SL-8 R/B                
1 20775U 90078B   26022.25085230  .00020122  00000+0  60406-3 0  9997
2 20775  82.9052 293.0172 0368366 169.5846 191.3288 14.87405923802391
SL-8 R/B                
1 21088U 91006B   26022.23210429  .00000012  00000+0 -30438-5 0  9996
2 21088  82.9410 204.5911 0022805 162.5078  10.7784 13.77491883757673
OKEAN-3                 
1 21397U 91039A   26022.25927267  .00004820  00000+0  34234-3 0  9998
2 21397  82.5154  21.8111 0015912 123.5452 236.7297 15.04407246858058
COSMOS 2151             
1 21422U 91042A   26022.25452937  .00003775  00000+0  30202-3 0  9997
2 21422  82.4986 128.4585 0011933 210.6780 149.3747 14.99895206856236
