CCSDS_OMM_VERS = 2.0
CREATION_DATE  = 
ORIGINATOR     = 

OBJECT_NAME    = DELTA 2 R/B(1)
OBJECT_ID      = 1990-008B
CENTER_NAME    = EARTH
REF_FRAME      = TEME
TIME_SYSTEM    = UTC
MEAN_ELEMENT_THEORY = SGP/SGP4

EPOCH          = 2026-01-22T06:33:17.835840
MEAN_MOTION    = 15.49536406
ECCENTRICITY   = .0100704
INCLINATION    = 35.6056
RA_OF_ASC_NODE = 117.9932
ARG_OF_PERICENTER = 189.0953
MEAN_ANOMALY   = 170.7956

EPHEMERIS_TYPE = 0
CLASSIFICATION_TYPE = U
NORAD_CAT_ID   = 20453
ELEMENT_SET_NO = 999
REV_AT_EPOCH   = 91891
BSTAR          = .89448697E-3
MEAN_MOTION_DOT = .63184E-3
MEAN_MOTION_DDOT = 0

CCSDS_OMM_VERS = 2.0
CREATION_DATE  = 
ORIGINATOR     = 

OBJECT_NAME    = COSMOS 2058
OBJECT_ID      = 1990-010A
CENTER_NAME    = EARTH
REF_FRAME      = TEME
TIME_SYSTEM    = UTC
MEAN_ELEMENT_THEORY = SGP/SGP4

EPOCH          = 2026-01-22T05:29:31.890912
MEAN_MOTION    = 15.10885520
ECCENTRICITY   = .00111818
INCLINATION    = 82.4660
RA_OF_ASC_NODE = 93.1968
ARG_OF_PERICENTER = 128.3358
MEAN_ANOMALY   = 231.8878

EPHEMERIS_TYPE = 0
CLASSIFICATION_TYPE = U
NORAD_CAT_ID   = 20465
ELEMENT_SET_NO = 999
REV_AT_EPOCH   = 93522
BSTAR          = .32474791E-3
MEAN_MOTION_DOT = .544E-4
MEAN_MOTION_DDOT = 0

CCSDS_OMM_VERS = 2.0
CREATION_DATE  = 
ORIGINATOR     = 

OBJECT_NAME    = SL-14 R/B
OBJECT_ID      = 1990-010B
CENTER_NAME    = EARTH
REF_FRAME      = TEME
TIME_SYSTEM    = UTC
MEAN_ELEMENT_THEORY = SGP/SGP4

EPOCH          = 2026-01-22T05:10:23.652192
MEAN_MOTION    = 14.83519234
ECCENTRICITY   = .00214125
INCLINATION    = 82.5046
RA_OF_ASC_NODE = 311.0372
ARG_OF_PERICENTER = 92.6865
MEAN_ANOMALY   = 267.6802

EPHEMERIS_TYPE = 0
CLASSIFICATION_TYPE = U
NORAD_CAT_ID   = 20466
ELEMENT_SET_NO = 999
REV_AT_EPOCH   = 92159
BSTAR          = .10693962E-3
MEAN_MOTION_DOT = .907E-5
MEAN_MOTION_DDOT = 0

CCSDS_OMM_VERS = 2.0
CREATION_DATE  = 
ORIGINATOR     = 

OBJECT_NAME    = SL-14 R/B
OBJECT_ID      = 1990-018B
CENTER_NAME    = EARTH
REF_FRAME      = TEME
TIME_SYSTEM    = UTC
MEAN_ELEMENT_THEORY = SGP/SGP4

EPOCH          = 2026-01-22T01:17:01.342464
MEAN_MOTION    = 14.82094909
ECCENTRICITY   = .00150098
INCLINATION    = 82.5205
RA_OF_ASC_NODE = 266.6887
ARG_OF_PERICENTER = 243.5907
MEAN_ANOMALY   = 116.3767

EPHEMERIS_TYPE = 0
CLASSIFICATION_TYPE = U
NORAD_CAT_ID   = 20511
ELEMENT_SET_NO = 999
REV_AT_EPOCH   = 91567
BSTAR          = .10254991E-3
MEAN_MOTION_DOT = .839E-5
MEAN_MOTION_DDOT = 0

CCSDS_OMM_VERS = 2.0
CREATION_DATE  = 
ORIGINATOR     = 

OBJECT_NAME    = HST
OBJECT_ID      = 1990-037B
CENTER_NAME    = EARTH
REF_FRAME      = TEME
TIME_SYSTEM    = UTC
MEAN_ELEMENT_THEORY = SGP/SGP4

EPOCH          = 2026-01-22T05:05:16.490688
MEAN_MOTION    = 15.28679599
ECCENTRICITY   = .00016476
INCLINATION    = 28.4682
RA_OF_ASC_NODE = 356.8795
ARG_OF_PERICENTER = 319.5889
MEAN_ANOMALY   = 40.4584

EPHEMERIS_TYPE = 0
CLASSIFICATION_TYPE = U
NORAD_CAT_ID   = 20580
ELEMENT_SET_NO = 999
REV_AT_EPOCH   = 76619
BSTAR          = .34471559E-3
MEAN_MOTION_DOT = .10127E-3
MEAN_MOTION_DDOT = 0

CCSDS_OMM_VERS = 2.0
CREATION_DATE  = 
ORIGINATOR     = 

OBJECT_NAME    = SL-16 R/B
OBJECT_ID      = 1990-046B
CENTER_NAME    = EARTH
REF_FRAME      = TEME
TIME_SYSTEM    = UTC
MEAN_ELEMENT_THEORY = SGP/SGP4

EPOCH          = 2026-01-22T07:45:32.959296
MEAN_MOTION    = 14.15007927
ECCENTRICITY   = .00138845
INCLINATION    = 70.9995
RA_OF_ASC_NODE = 35.2899
ARG_OF_PERICENTER = 4.3504
MEAN_ANOMALY   = 355.7737

EPHEMERIS_TYPE = 0
CLASSIFICATION_TYPE = U
NORAD_CAT_ID   = 20625
ELEMENT_SET_NO = 999
REV_AT_EPOCH   = 84183
BSTAR          = -.45366547E-4
MEAN_MOTION_DOT = -.136E-5
MEAN_MOTION_DDOT = 0

CCSDS_OMM_VERS = 2.0
CREATION_DATE  = 
ORIGINATOR     = 

OBJECT_NAME    = COSMOS 2084
OBJECT_ID      = 1990-055A
CENTER_NAME    = EARTH
REF_FRAME      = TEME
TIME_SYSTEM    = UTC
MEAN_ELEMENT_THEORY = SGP/SGP4

EPOCH          = 2026-01-21T16:41:36.087648
MEAN_MOTION    = 15.05316303
ECCENTRICITY   = .00248422
INCLINATION    = 62.7909
RA_OF_ASC_NODE = 135.8210
ARG_OF_PERICENTER = 180.8535
MEAN_ANOMALY   = 179.2527

EPHEMERIS_TYPE = 0
CLASSIFICATION_TYPE = U
NORAD_CAT_ID   = 20663
ELEMENT_SET_NO = 999
REV_AT_EPOCH   = 92924
BSTAR          = .48030613E-3
MEAN_MOTION_DOT = .6757E-4
MEAN_MOTION_DDOT = 0

CCSDS_OMM_VERS = 2.0
CREATION_DATE  = 
ORIGINATOR     = 

OBJECT_NAME    = SL-6 R/B(2)
OBJECT_ID      = 1990-055D
CENTER_NAME    = EARTH
REF_FRAME      = TEME
TIME_SYSTEM    = UTC
MEAN_ELEMENT_THEORY = SGP/SGP4

EPOCH          = 2026-01-22T05:07:23.286144
MEAN_MOTION    = 15.03310843
ECCENTRICITY   = .00180247
INCLINATION    = 62.7835
RA_OF_ASC_NODE = 51.8680
ARG_OF_PERICENTER = 332.0572
MEAN_ANOMALY   = 27.9558

EPHEMERIS_TYPE = 0
CLASSIFICATION_TYPE = U
NORAD_CAT_ID   = 20666
ELEMENT_SET_NO = 999
REV_AT_EPOCH   = 93120
BSTAR          = .31834761E-3
MEAN_MOTION_DOT = .4158E-4
MEAN_MOTION_DDOT = 0

CCSDS_OMM_VERS = 2.0
CREATION_DATE  = 
ORIGINATOR     = 

OBJECT_NAME    = SL-8 R/B
OBJECT_ID      = 1990-078B
CENTER_NAME    = EARTH
REF_FRAME      = TEME
TIME_SYSTEM    = UTC
MEAN_ELEMENT_THEORY = SGP/SGP4

EPOCH          = 2026-01-22T06:01:13.638720
MEAN_MOTION    = 14.87405923
ECCENTRICITY   = .03683663
INCLINATION    = 82.9052
RA_OF_ASC_NODE = 293.0172
ARG_OF_PERICENTER = 169.5846
MEAN_ANOMALY   = 191.3288

EPHEMERIS_TYPE = 0
CLASSIFICATION_TYPE = U
NORAD_CAT_ID   = 20775
ELEMENT_SET_NO = 999
REV_AT_EPOCH   = 80239
BSTAR          = .60405862E-3
MEAN_MOTION_DOT = .20122E-3
MEAN_MOTION_DDOT = 0

CCSDS_OMM_VERS = 2.0
CREATION_DATE  = 
ORIGINATOR     = 

OBJECT_NAME    = SL-8 R/B
OBJECT_ID      = 1991-006B
CENTER_NAME    = EARTH
REF_FRAME      = TEME
TIME_SYSTEM    = UTC
MEAN_ELEMENT_THEORY = SGP/SGP4

EPOCH          = 2026-01-22T05:34:13.810656
MEAN_MOTION    = 13.77491883
ECCENTRICITY   = .00228058
INCLINATION    = 82.9410
RA_OF_ASC_NODE = 204.5911
ARG_OF_PERICENTER = 162.5078
MEAN_ANOMALY   = 10.7784

EPHEMERIS_TYPE = 0
CLASSIFICATION_TYPE = U
NORAD_CAT_ID   = 21088
ELEMENT_SET_NO = 999
REV_AT_EPOCH   = 75767
BSTAR          = -.3043823E-5
MEAN_MOTION_DOT = .12E-6
MEAN_MOTION_DDOT = 0

CCSDS_OMM_VERS = 2.0
CREATION_DATE  = 
ORIGINATOR     = 

OBJECT_NAME    = OKEAN-3
OBJECT_ID      = 1991-039A
CENTER_NAME    = EARTH
REF_FRAME      = TEME
TIME_SYSTEM    = UTC
MEAN_ELEMENT_THEORY = SGP/SGP4

EPOCH          = 2026-01-22T06:13:21.158688
MEAN_MOTION    = 15.04407246
ECCENTRICITY   = .00159121
INCLINATION    = 82.5154
RA_OF_ASC_NODE = 21.8111
ARG_OF_PERICENTER = 123.5452
MEAN_ANOMALY   = 236.7297

EPHEMERIS_TYPE = 0
CLASSIFICATION_TYPE = U
NORAD_CAT_ID   = 21397
ELEMENT_SET_NO = 999
REV_AT_EPOCH   = 85805
BSTAR          = .34233681E-3
MEAN_MOTION_DOT = .482E-4
MEAN_MOTION_DDOT = 0

CCSDS_OMM_VERS = 2.0
CREATION_DATE  = 
ORIGINATOR     = 

OBJECT_NAME    = COSMOS 2151
OBJECT_ID      = 1991-042A
CENTER_NAME    = EARTH
REF_FRAME      = TEME
TIME_SYSTEM    = UTC
MEAN_ELEMENT_THEORY = SGP/SGP4

EPOCH          = 2026-01-22T06:06:31.337568
MEAN_MOTION    = 14.99895206
ECCENTRICITY   = .00119338
INCLINATION    = 82.4986
RA_OF_ASC_NODE = 128.4585
ARG_OF_PERICENTER = 210.6780
MEAN_ANOMALY   = 149.3747

EPHEMERIS_TYPE = 0
CLASSIFICATION_TYPE = U
NORAD_CAT_ID   = 21422
ELEMENT_SET_NO = 999
REV_AT_EPOCH   = 85623
BSTAR          = .30202106E-3
MEAN_MOTION_DOT = .3775E-4
MEAN_MOTION_DDOT = 0

